TDRS 3                  
1 19548U 88091B   24185.81916425 -.00000307  00000+0  00000+0 0  9998
2 19548  13.1491 345.8072 0033413 341.3747 200.9690  1.00265096118218
FLTSATCOM 8 (USA 46)    
1 20253U 89077A   24185.91608942 -.00000377  00000+0  00000+0 0  9998
2 20253  12.6283 355.4514 0005174  86.2254 295.8775  1.00261142253478
SKYNET 4C               
1 20776U 90079A   24186.10327170  .00000117  00000+0  00000+0 0  9996
2 20776  13.5688 354.6810 0001970 127.5590 230.9558  1.00277978123793
TDRS 5                  
1 21639U 91054B   24184.88631272 -.00000309  00000+0  00000+0 0  9997
2 21639  14.1602 358.9943 0003746 217.1768 321.8828  1.00263235120557
TDRS 6                  
1 22314U 93003B   24185.31229720 -.00000305  00000+0  00000+0 0  9990
2 22314  14.1631   2.2944 0011653 155.1551 190.9827  1.00270751115242
UFO 2 (USA 95)          
1 22787U 93056A   24186.10327170  .00000116  00000+0  00000+0 0  9997
2 22787  11.6610   7.2878 0003248  90.0129 251.2061  1.00276243111503
USA 99 (MILSTAR-1 1)    
1 22988U 94009A   24186.09718295 -.00000213  00000+0  00000+0 0  9998
2 22988  16.5354  35.2760 0001765  86.7934 105.5159  1.00271163 24490
UFO 4 (USA 108)         
1 23467U 95003A   24185.79154890 -.00000029  00000+0  00000+0 0  9992
2 23467   9.6651  15.4227 0004889 104.8563 259.2579  1.00275248107790